OBJECT_NAME,OBJECT_ID,EPOCH,MEAN_MOTION,ECCENTRICITY,INCLINATION,RA_OF_ASC_NODE,ARG_OF_PERICENTER,MEAN_ANOMALY,EPHEMERIS_TYPE,CLASSIFICATION_TYPE,NORAD_CAT_ID,ELEMENT_SET_NO,REV_AT_EPOCH,BSTAR,MEAN_MOTION_DOT,MEAN_MOTION_DDOT
STARLINK-31140,2024-011C,2026-07-08T08:05:19.011840,15.34375287,.00010762,53.1595,172.4535,97.1829,262.9296,0,U,58767,999,13875,.10669103E-3,.3227E-4,0
STARLINK-31146,2024-011E,2026-07-08T08:14:23.619552,15.34379085,.00010718,53.1597,172.4904,126.6794,233.4307,0,U,58769,999,13875,.12701365E-3,.3915E-4,0
STARLINK-31143,2024-011F,2026-07-08T22:27:38.578752,15.34402477,.00011955,53.1600,169.7928,105.2981,254.8154,0,U,58770,999,13884,.17610773E-3,.5579E-4,0
STARLINK-31135,2024-011G,2026-07-08T16:13:43.332672,15.30187084,.0000885,53.1583,169.6144,101.3954,258.7147,0,U,58771,999,13882,.10922062E-3,.2876E-4,0
STARLINK-31136,2024-011H,2026-07-08T15:45:12.046752,15.34389559,.00011352,53.1605,170.8873,69.9055,290.2070,0,U,58772,999,13879,.185305E-3,.5888E-4,0
STARLINK-31073,2024-011J,2026-07-08T08:30:16.263360,15.30196692,.00011357,53.1592,173.2669,84.7589,275.3541,0,U,58773,999,13874,.78308427E-4,.1961E-4,0
STARLINK-31122,2024-011K,2026-07-08T16:29:40.382016,15.30191681,.00015076,53.1607,171.7852,68.5048,291.6113,0,U,58774,999,13879,.11800343E-3,.3136E-4,0
STARLINK-31123,2024-011L,2026-07-08T08:47:35.625984,15.34395450,.00012982,53.1580,171.9230,87.9351,272.1800,0,U,58775,999,1201,.15460971E-3,.485E-4,0
STARLINK-31117,2024-011M,2026-07-08T22:56:31.750656,15.30201418,.00013092,53.1575,170.6149,87.8162,272.2989,0,U,58776,999,13883,.26987815E-3,.7642E-4,0
STARLINK-31132,2024-011N,2026-07-08T22:31:06.172896,15.31703983,.00014391,53.1606,79.5815,103.3572,256.7590,0,U,58777,999,14013,.38956738E-4,.844E-5,0
STARLINK-31120,2024-011P,2026-07-08T16:00:20.549664,15.34384225,.00008704,53.1580,170.9454,121.7292,238.3795,0,U,58778,999,13880,.12888467E-3,.3979E-4,0
STARLINK-31142,2024-011Q,2026-07-08T08:47:00.610656,15.30186397,.00007526,53.1594,173.3315,98.7435,261.3651,0,U,58779,999,13874,.13444963E-3,.3623E-4,0
STARLINK-31099,2024-011S,2026-07-08T16:32:42.976320,15.30187448,.00011381,53.1599,171.7959,93.4775,266.6356,0,U,58781,999,13879,.10232505E-3,.2671E-4,0
STARLINK-31047,2024-011U,2026-07-08T22:00:01.999584,15.34417183,.00011778,53.1579,153.3467,90.4428,31.1908,0,U,58783,999,567,.8557654E-3,.28663E-3,0
STARLINK-31039,2024-011V,2026-07-08T08:33:18.591552,15.30174931,.00012739,53.1590,173.2681,111.9166,248.1970,0,U,58784,999,13874,.32731569E-4,.61E-5,0
STARLINK-31034,2024-011W,2026-07-08T22:15:13.064256,15.34406152,.0001665,53.1607,65.9850,97.7983,262.3209,0,U,58785,999,14032,-.8441639E-5,-.662E-5,0
STARLINK-31024,2024-011X,2026-07-08T08:40:10.490592,15.30186971,.00008697,53.1587,171.1944,47.8703,312.2372,0,U,58786,999,13877,.20084343E-3,.5592E-4,0
STARLINK-31189,2024-012A,2026-07-08T17:48:57.328416,15.27570028,.00013226,43.0022,201.2450,282.3299,77.7405,0,U,58787,999,13975,.93072116E-4,.2299E-4,0
STARLINK-31185,2024-012B,2026-07-08T17:36:11.753568,15.27561789,.00013023,43.0003,202.0368,277.6515,82.4189,0,U,58788,999,13974,.68320423E-4,.1617E-4,0
STARLINK-31166,2024-012C,2026-07-08T04:05:36.042720,15.27480387,.00014631,43.0053,204.6935,303.9001,56.1711,0,U,58789,999,13966,.85573762E-3,.23289E-3,0
STARLINK-31187,2024-012D,2026-07-08T17:34:19.684128,15.27583126,.00009322,42.9998,202.0247,272.1365,87.9380,0,U,58790,999,13974,.11232665E-3,.2831E-4,0
STARLINK-31162,2024-012E,2026-07-08T04:03:44.834688,15.27565854,.00010347,43.0017,204.6906,264.1878,95.8856,0,U,58791,999,13966,.11953021E-3,.3027E-4,0
STARLINK-31184,2024-012G,2026-07-08T11:47:06.699264,15.27569610,.00015394,43.0036,202.7995,279.0431,81.0246,0,U,58793,999,13971,.98364793E-4,.2445E-4,0
STARLINK-31192,2024-012H,2026-07-08T12:48:11.496096,15.27564604,.0001612,43.0012,203.1074,287.5082,72.5594,0,U,58794,999,13971,.11512028E-3,.2905E-4,0
STARLINK-31161,2024-012J,2026-07-08T04:00:02.411712,15.27559208,.00018703,43.0057,204.6674,289.7333,70.3317,0,U,58795,999,13966,.1854109E-3,.484E-4,0
STARLINK-31195,2024-012K,2026-07-08T09:50:59.160480,15.27568422,.00013677,43.0001,203.9097,296.3629,63.7082,0,U,58796,999,13969,.18605803E-4,.25E-5,0
STARLINK-31193,2024-012L,2026-07-08T08:55:28.410240,15.27563214,.00016383,43.0035,203.6244,284.1373,75.9297,0,U,58797,999,13969,.1183082E-3,.2993E-4,0
STARLINK-31168,2024-012M,2026-07-08T12:09:20.632320,15.27567781,.00012137,43.0016,202.9085,266.0390,94.0323,0,U,58798,999,13971,.15491054E-3,.4001E-4,0
STARLINK-31191,2024-012P,2026-07-08T11:41:34.105920,15.27559032,.00012851,43.0022,202.7673,276.9833,83.0873,0,U,58800,999,13971,.58345517E-4,.1343E-4,0
STARLINK-31170,2024-012Q,2026-07-08T07:36:07.344288,15.27561061,.00012609,43.0012,204.0648,265.7853,94.2854,0,U,58801,999,13968,.90583278E-4,.223E-4,0
